[
    {
        "Altitude(m)": 557914.1277235548,
        "Argument of Periapsis(deg)": 0.006622991110713501,
        "Eccentricity": 0.0,
        "Inclination(deg)": 53.0,
        "Latitude(deg)": 44.44985671804258,
        "Longitude(deg)": -118.45077654238634,
        "Mean Anomaly(deg)": 61.00069286757756,
        "RAAN(deg)": 294.99014336852804,
        "Satellite Name": "Starlink Shell 1 1301",
        "Satellite Number": 1301,
        "Semi-Major Axis(m)": 6931778.249405717,
        "Time(s)": 190
    },
    {
        "Altitude(m)": 557990.0180994064,
        "Argument of Periapsis(deg)": 0.0069715695902247375,
        "Eccentricity": 0.0,
        "Inclination(deg)": 53.0,
        "Latitude(deg)": 44.78743925447607,
        "Longitude(deg)": -117.75120376376695,
        "Mean Anomaly(deg)": 61.62752407113431,
        "RAAN(deg)": 294.9896245984506,
        "Satellite Name": "Starlink Shell 1 1301",
        "Satellite Number": 1301,
        "Semi-Major Axis(m)": 6931778.249405717,
        "Time(s)": 200
    },
    {
        "Altitude(m)": 558065.0065743393,
        "Argument of Periapsis(deg)": 0.007320148069735974,
        "Eccentricity": 0.0,
        "Inclination(deg)": 53.0,
        "Latitude(deg)": 45.120140995684096,
        "Longitude(deg)": -117.04301536219519,
        "Mean Anomaly(deg)": 62.25435527469101,
        "RAAN(deg)": 294.9891058283731,
        "Satellite Name": "Starlink Shell 1 1301",
        "Satellite Number": 1301,
        "Semi-Major Axis(m)": 6931778.249405717,
        "Time(s)": 210
    },
    {
        "Altitude(m)": 558139.0462821706,
        "Argument of Periapsis(deg)": 0.007668726549247212,
        "Eccentricity": 0.0,
        "Inclination(deg)": 53.0,
        "Latitude(deg)": 45.44784914889367,
        "Longitude(deg)": -116.32613917693008,
        "Mean Anomaly(deg)": 62.881186478247706,
        "RAAN(deg)": 294.9885870582956,
        "Satellite Name": "Starlink Shell 1 1301",
        "Satellite Number": 1301,
        "Semi-Major Axis(m)": 6931778.249405717,
        "Time(s)": 220
    },
    {
        "Altitude(m)": 558212.0910457048,
        "Argument of Periapsis(deg)": 0.00801730502875845,
        "Eccentricity": 0.0,
        "Inclination(deg)": 53.0,
        "Latitude(deg)": 45.77044936964819,
        "Longitude(deg)": -115.60050934154243,
        "Mean Anomaly(deg)": 63.50801768180446,
        "RAAN(deg)": 294.98806828821813,
        "Satellite Name": "Starlink Shell 1 1301",
        "Satellite Number": 1301,
        "Semi-Major Axis(m)": 6931778.249405717,
        "Time(s)": 230
    },
    {
        "Altitude(m)": 558284.0953997606,
        "Argument of Periapsis(deg)": 0.008365883508269684,
        "Eccentricity": 0.0,
        "Inclination(deg)": 53.0,
        "Latitude(deg)": 46.0878258322431,
        "Longitude(deg)": -114.86606627811139,
        "Mean Anomaly(deg)": 64.13484888536115,
        "RAAN(deg)": 294.9875495181407,
        "Satellite Name": "Starlink Shell 1 1301",
        "Satellite Number": 1301,
        "Semi-Major Axis(m)": 6931778.249405717,
        "Time(s)": 240
    },
    {
        "Altitude(m)": 558355.0146138355,
        "Argument of Periapsis(deg)": 0.008714461987780921,
        "Eccentricity": 0.0,
        "Inclination(deg)": 53.0,
        "Latitude(deg)": 46.39986130902546,
        "Longitude(deg)": -114.12275821861255,
        "Mean Anomaly(deg)": 64.7616800889179,
        "RAAN(deg)": 294.9870307480632,
        "Satellite Name": "Starlink Shell 1 1301",
        "Satellite Number": 1301,
        "Semi-Major Axis(m)": 6931778.249405717,
        "Time(s)": 250
    },
    {
        "Altitude(m)": 558424.8047143202,
        "Argument of Periapsis(deg)": 0.009063040467292158,
        "Eccentricity": 0.0,
        "Inclination(deg)": 53.0,
        "Latitude(deg)": 46.70643725895227,
        "Longitude(deg)": -113.37054122631454,
        "Mean Anomaly(deg)": -294.6114887075254,
        "RAAN(deg)": 294.98651197798574,
        "Satellite Name": "Starlink Shell 1 1301",
        "Satellite Number": 1301,
        "Semi-Major Axis(m)": 6931778.249405717,
        "Time(s)": 260
    },
    {
        "Altitude(m)": 558493.4225063961,
        "Argument of Periapsis(deg)": 0.009411618946803396,
        "Eccentricity": 0.0,
        "Inclination(deg)": 53.0,
        "Latitude(deg)": 47.00743392578928,
        "Longitude(deg)": -112.60937922835551,
        "Mean Anomaly(deg)": -293.9846575039687,
        "RAAN(deg)": 294.9859932079082,
        "Satellite Name": "Starlink Shell 1 1301",
        "Satellite Number": 1301,
        "Semi-Major Axis(m)": 6931778.249405717,
        "Time(s)": 270
    },
    {
        "Altitude(m)": 558560.8255954566,
        "Argument of Periapsis(deg)": 0.009760197426314633,
        "Eccentricity": 0.0,
        "Inclination(deg)": 53.0,
        "Latitude(deg)": 47.30273044630507,
        "Longitude(deg)": -111.839245570413,
        "Mean Anomaly(deg)": -293.35782630041194,
        "RAAN(deg)": 294.98547443783076,
        "Satellite Name": "Starlink Shell 1 1301",
        "Satellite Number": 1301,
        "Semi-Major Axis(m)": 6931778.249405717,
        "Time(s)": 280
    },
    {
        "Altitude(m)": 558626.9724081545,
        "Argument of Periapsis(deg)": 0.01010877590582587,
        "Eccentricity": 0.0,
        "Inclination(deg)": 53.0,
        "Latitude(deg)": 47.592204968783335,
        "Longitude(deg)": -111.06012306548539,
        "Mean Anomaly(deg)": -292.7309950968553,
        "RAAN(deg)": 294.98495566775335,
        "Satellite Name": "Starlink Shell 1 1301",
        "Satellite Number": 1301,
        "Semi-Major Axis(m)": 6931778.249405717,
        "Time(s)": 290
    },
    {
        "Altitude(m)": 558691.8222129999,
        "Argument of Periapsis(deg)": 0.010457354385337106,
        "Eccentricity": 0.0,
        "Inclination(deg)": 53.0,
        "Latitude(deg)": 47.87573478214203,
        "Longitude(deg)": -110.27200404713302,
        "Mean Anomaly(deg)": -292.10416389329856,
        "RAAN(deg)": 294.98443689767583,
        "Satellite Name": "Starlink Shell 1 1301",
        "Satellite Number": 1301,
        "Semi-Major Axis(m)": 6931778.249405717,
        "Time(s)": 300
    },
    {
        "Altitude(m)": 558755.3351405195,
        "Argument of Periapsis(deg)": 0.010805932864848343,
        "Eccentricity": 0.0,
        "Inclination(deg)": 53.0,
        "Latitude(deg)": 48.15319645590462,
        "Longitude(deg)": -109.47489193723278,
        "Mean Anomaly(deg)": -291.47733268974184,
        "RAAN(deg)": 294.9839181275984,
        "Satellite Name": "Starlink Shell 1 1301",
        "Satellite Number": 1301,
        "Semi-Major Axis(m)": 6931778.249405717,
        "Time(s)": 310
    },
    {
        "Altitude(m)": 558817.472202998,
        "Argument of Periapsis(deg)": 0.01115451134435958,
        "Eccentricity": 0.0,
        "Inclination(deg)": 53.0,
        "Latitude(deg)": 48.42446599121633,
        "Longitude(deg)": -108.66880129938815,
        "Mean Anomaly(deg)": -290.8505014861851,
        "RAAN(deg)": 294.9833993575209,
        "Satellite Name": "Starlink Shell 1 1301",
        "Satellite Number": 1301,
        "Semi-Major Axis(m)": 6931778.249405717,
        "Time(s)": 320
    },
    {
        "Altitude(m)": 558878.1953137413,
        "Argument of Periapsis(deg)": 0.011503089823870818,
        "Eccentricity": 0.0,
        "Inclination(deg)": 53.0,
        "Latitude(deg)": 48.689418983041364,
        "Longitude(deg)": -107.85375788745888,
        "Mean Anomaly(deg)": -290.2236702826284,
        "RAAN(deg)": 294.98288058744345,
        "Satellite Name": "Starlink Shell 1 1301",
        "Satellite Number": 1301,
        "Semi-Major Axis(m)": 6931778.249405717,
        "Time(s)": 330
    },
    {
        "Altitude(m)": 558937.4673058762,
        "Argument of Periapsis(deg)": 0.011851668303382053,
        "Eccentricity": 0.0,
        "Inclination(deg)": 53.0,
        "Latitude(deg)": 48.947930793615264,
        "Longitude(deg)": -107.02980019837129,
        "Mean Anomaly(deg)": -289.5968390790717,
        "RAAN(deg)": 294.9823618173659,
        "Satellite Name": "Starlink Shell 1 1301",
        "Satellite Number": 1301,
        "Semi-Major Axis(m)": 6931778.249405717,
        "Time(s)": 340
    },
    {
        "Altitude(m)": 558995.2519507032,
        "Argument of Periapsis(deg)": 0.012200246782893292,
        "Eccentricity": 0.0,
        "Inclination(deg)": 53.0,
        "Latitude(deg)": 49.199876737148784,
        "Longitude(deg)": -106.19697949948487,
        "Mean Anomaly(deg)": -288.9700078755149,
        "RAAN(deg)": 294.98184304728846,
        "Satellite Name": "Starlink Shell 1 1301",
        "Satellite Number": 1301,
        "Semi-Major Axis(m)": 6931778.249405717,
        "Time(s)": 350
    },
    {
        "Altitude(m)": 559051.5139755599,
        "Argument of Periapsis(deg)": 0.012548825262404526,
        "Eccentricity": 0.0,
        "Inclination(deg)": 53.0,
        "Latitude(deg)": 49.44513227570309,
        "Longitude(deg)": -105.35535983912698,
        "Mean Anomaly(deg)": -288.34317667195825,
        "RAAN(deg)": 294.981324277211,
        "Satellite Name": "Starlink Shell 1 1301",
        "Satellite Number": 1301,
        "Semi-Major Axis(m)": 6931778.249405717,
        "Time(s)": 360
    },
    {
        "Altitude(m)": 559106.2190811906,
        "Argument of Periapsis(deg)": 0.012897403741915765,
        "Eccentricity": 0.0,
        "Inclination(deg)": 53.0,
        "Latitude(deg)": 49.68357322607084,
        "Longitude(deg)": -104.5050195486576,
        "Mean Anomaly(deg)": -287.7163454684016,
        "RAAN(deg)": 294.98080550713354,
        "Satellite Name": "Starlink Shell 1 1301",
        "Satellite Number": 1301,
        "Semi-Major Axis(m)": 6931778.249405717,
        "Time(s)": 370
    }
]